STARLINK-34108          
1 65872U 25223U   26093.61154999  .00021783  00000+0  74694-3 0  9999
2 65872  53.1608 178.2437 0001864  58.9054 301.2130 15.30134332 28022
STARLINK-35423          
1 65873U 25223V   26093.60099003 -.00009159  00000+0 -29777-3 0  9990
2 65873  53.1577 178.1812 0001113 107.7378 252.3744 15.30169557 28027
STARLINK-35425          
1 65874U 25223W   26093.50728159 -.00020424  00000+0 -67946-3 0  9999
2 65874  53.1595 179.0178 0001462  99.8283 260.2883 15.30193090 28005
STARLINK-34688          
1 65875U 25223X   26093.53156557 -.00019530  00000+0 -64951-3 0  9999
2 65875  53.1575 179.1670 0001059  68.8259 291.2855 15.30173713 28006
STARLINK-34438          
1 65876U 25223Y   26093.51573051  .00016796  00000+0  57931-3 0  9999
2 65876  53.1585 179.0682 0001438 113.2334 246.8818 15.30122681 28003
STARLINK-35462          
1 65877U 25223Z   26093.53778655  .00036244  00000+0  12316-2 0  9996
2 65877  53.1575 178.4949 0001400  56.0539 304.0595 15.30154429 28017
STARLINK-35453          
1 65878U 25223AA  26093.52206495  .00062325  00000+0  21034-2 0  9990
2 65878  53.1568 179.1055 0000978  39.0581 321.0490 15.30128907 28007
STARLINK-35418          
1 65879U 25223AB  26093.53050714 -.00006435  00000+0 -20549-3 0  9996
2 65879  53.1580 179.1544 0000869  97.3909 262.7191 15.30174956 28009
STARLINK-35445          
1 65880U 25223AC  26093.64004072  .00049776  00000+0  16848-2 0  9995
2 65880  53.1593 178.4209 0001401 113.7350 246.3797 15.30136805 28024
STARLINK-35464          
1 65881U 25223AD  26093.52417711 -.00037240  00000+0 -12530-2 0  9990
2 65881  53.1568 179.1183 0000973  49.7052 310.4034 15.30159853 28009
STARLINK-35270          
1 65882U 25224A   26093.63708532  .00041756  00000+0  14137-2 0  9998
2 65882  53.1558 255.4884 0000572  98.6870 261.4195 15.30207988 28647
STARLINK-35367          
1 65883U 25224B   26093.62442170  .00026232  00000+0  89402-3 0  9991
2 65883  53.1581 255.4089 0000787  87.4219 272.6872 15.30223612 28640
STARLINK-35384          
1 65884U 25224C   26093.44747133  .00046749  00000+0  15792-2 0  9994
2 65884  53.1600 256.4378 0000747 313.7545  46.3394 15.30229720 28616
STARLINK-35415          
1 65885U 25224D   26093.61809784  .00013418  00000+0  46451-3 0  9999
2 65885  53.1554 255.3705 0002440  91.1661 268.9619 15.30187506 28599
STARLINK-35413          
1 65886U 25224E   26093.61386701  .00005608  00000+0  20152-3 0  9991
2 65886  53.1563 255.3427 0000932  74.9232 285.1872 15.30169218 28590
STARLINK-35332          
1 65887U 25224F   26093.60436659 -.00006621  00000+0 -21173-3 0  9991
2 65887  53.1577 255.2820 0001099  44.2499 315.8589 15.30181522 28679
STARLINK-35362          
1 65888U 25224G   26093.58547410  .00046971  00000+0  15848-2 0  9998
2 65888  53.1583 255.8775 0001676 103.6281 256.4907 15.30264868 28637
STARLINK-35193          
1 65889U 25224H   26093.59498237  .00040989  00000+0  13870-2 0  9998
2 65889  53.1573 255.9259 0000710 345.5606  14.5375 15.30232958 28661
STARLINK-34542          
1 65890U 25224J   26093.59181855  .00030322  00000+0  10320-2 0  9992
2 65890  53.1573 255.9148 0001049  84.6230 275.4891 15.30190558 28682
STARLINK-34791          
1 65891U 25224K   26093.60131671  .00039497  00000+0  13385-2 0  9992
2 65891  53.1553 255.9661 0000855  57.8351 302.2733 15.30200883 28688
STARLINK-34853          
1 65892U 25224L   26093.43480457  .00046074  00000+0  15556-2 0  9994
2 65892  53.1533 256.3594 0002657  75.2536 284.8759 15.30251025 28595
STARLINK-34921          
1 65893U 25224M   26093.45802190  .00043790  00000+0  14800-2 0  9992
2 65893  53.1588 256.4938 0002552 110.2165 249.9111 15.30240436 28667
STARLINK-34672          
1 65894U 25224N   26092.73217478  .00035455  00000+0  12036-2 0  9990
2 65894  53.1595 259.7862 0001357  92.3569 267.7587 15.30196542 28559
STARLINK-34898          
1 65895U 25224P   26093.63391977  .00058802  00000+0  19818-2 0  9994
2 65895  53.1568 255.4583 0000880 103.4888 256.6211 15.30200369 28690
STARLINK-34906          
1 65896U 25224Q   26093.44430458  .00039413  00000+0  13349-2 0  9992
2 65896  53.1564 256.4072 0001934  92.3430 267.7792 15.30221733 28663
STARLINK-34934          
1 65897U 25224R   26093.62125693  .00067416  00000+0  22628-2 0  9999
2 65897  53.1580 255.3792 0001234  13.9414 346.1620 15.30270167 28648
STARLINK-34936          
1 65898U 25224S   26093.62758366  .00029191  00000+0  99373-3 0  9999
2 65898  53.1560 255.4195 0000732 106.1049 254.0033 15.30203731 28699
STARLINK-35272          
1 65899U 25224T   26093.61068863 -.00012018  00000+0 -39490-3 0  9991
2 65899  53.1574 255.3104 0000709  90.7676 269.3406 15.30150783 28682
STARLINK-35264          
1 65900U 25224U   26093.60753510  .00037401  00000+0  12699-2 0  9995
2 65900  53.1541 255.2919 0000888  80.6838 279.4263 15.30166547 28686
STARLINK-35249          
1 65901U 25224V   26093.19149133  .00046556  00000+0  15740-2 0  9991
2 65901  53.1579 257.6726 0001957  87.6952 272.4273 15.30202658 28602
STARLINK-35278          
1 65902U 25224W   26093.59392763  .00012832  00000+0  44518-3 0  9991
2 65902  53.1580 255.9167 0001752  27.4573 332.6520 15.30160071 28683
STARLINK-35210          
1 65903U 25224X   26093.60342998  .00059692  00000+0  20091-2 0  9993
2 65903  53.1548 255.9753 0000891  20.7405 339.3632 15.30237093 28667
STARLINK-35348          
1 65904U 25224Y   26093.61597649  .00035286  00000+0  11970-2 0  9999
2 65904  53.1600 255.3452 0000601  60.5801 299.5260 15.30221864 28649
STARLINK-35380          
1 65905U 25224Z   26093.18198814  .00034349  00000+0  11655-2 0  9992
2 65905  53.1585 257.6121 0001849  90.1783 269.9429 15.30227374 28575
STARLINK-35385          
1 65906U 25224AA  26093.62652980  .00025121  00000+0  85772-3 0  9991
2 65906  53.1564 255.4098 0001004  48.7702 311.3385 15.30189248 28676
STARLINK-35347          
1 65907U 25224AB  26093.62019600  .00033659  00000+0  11430-2 0  9992
2 65907  53.1565 255.3686 0003271 157.9440 202.1702 15.30208351 28677
STARLINK-35329          
1 65908U 25224AC  26093.63286517  .00054030  00000+0  18211-2 0  9997
2 65908  53.1603 255.4487 0000682   3.9518 356.1488 15.30236860 28688
STARLINK-35387          
1 65909U 25224AD  26093.59920225  .00040910  00000+0  13847-2 0  9996
2 65909  53.1550 255.9482 0001140 125.4467 234.6640 15.30224502 28638
STARLINK-35523          
1 65910U 25225A   26093.16665986  .00025054  00000+0  85479-3 0  9995
2 65910  53.1598  52.1269 0001225  92.8119 267.3023 15.30214154 28154
STARLINK-35160          
1 65911U 25225B   26093.57121822  .00054707  00000+0  18457-2 0  9995
2 65911  53.1583  50.3875 0000891  71.6230 288.4868 15.30199521 28217
STARLINK-35508          
1 65912U 25225C   26093.16982846  .00053161  00000+0  17940-2 0  9991
2 65912  53.1597  52.1456 0001221  84.5463 275.5678 15.30204424 28155
STARLINK-35472          
1 65913U 25225D   26093.09818027  .00015310  00000+0  52779-3 0  9997
2 65913  53.1596  52.4119 0001123  90.1535 269.9594 15.30210716 28142
STARLINK-35524          
1 65914U 25225E   26093.57955304  .00061346  00000+0  20666-2 0  9990
2 65914  53.1599  49.7269 0002902  71.2400 288.8915 15.30193465 28225
STARLINK-35539          
1 65915U 25225F   26093.61226646  .00039497  00000+0  13389-2 0  9992
2 65915  53.1606  49.9484 0001238  81.8953 278.2188 15.30193647 28224
STARLINK-35521          
1 65916U 25225G   26093.15927754  .00064547  00000+0  21721-2 0  9993
2 65916  53.1602  52.0790 0001175  82.5259 277.5876 15.30207542 28151
STARLINK-35478          
1 65917U 25225H   26093.16243944  .00029161  00000+0  99263-3 0  9997
2 65917  53.1593  52.0988 0001106  87.2770 272.8357 15.30206832 28157
STARLINK-35516          
1 65918U 25225J   26093.59960580  .00073165  00000+0  24549-2 0  9994
2 65918  53.1622  49.8526 0001477  91.8295 268.2875 15.30243966 28228
STARLINK-35519          
1 65919U 25225K   26093.57638664  .00042756  00000+0  14468-2 0  9999
2 65919  53.1597  49.7048 0002157  77.6243 282.4999 15.30211870 28223
STARLINK-33902          
1 65920U 25225L   26093.57016236  .00035366  00000+0  12000-2 0  9995
2 65920  53.1596  50.3786 0001724  72.9652 287.1538 15.30214979 28215
STARLINK-35530          
1 65921U 25225M   26093.17510510  .00046949  00000+0  15872-2 0  9995
2 65921  53.1595  52.1789 0001198  82.9160 277.1977 15.30202261 28158
STARLINK-35544          
1 65922U 25225N   26093.17193607  .00019356  00000+0  66362-3 0  9993
2 65922  53.1591  52.1592 0001272  92.0951 268.0196 15.30216500 28153
STARLINK-35484          
1 65923U 25225P   26093.59327357  .00060682  00000+0  20447-2 0  9992
2 65923  53.1614  49.8116 0002588  73.7847 286.3439 15.30192524 28226
STARLINK-34994          
1 65924U 25225Q   26093.26352236  .00022006  00000+0  75260-3 0  9993
2 65924  53.1610  51.3079 0000994  84.9212 275.1902 15.30213255 28178
STARLINK-35458          
1 65925U 25225R   26093.58377246  .00032530  00000+0  11055-2 0  9991
2 65925  53.1614  49.7507 0002369  87.3804 272.7468 15.30204169 28222
STARLINK-35492          
1 65926U 25225S   26093.58693635  .00054487  00000+0  18384-2 0  9992
2 65926  53.1605  49.7721 0002796  73.1459 286.9848 15.30197849 28229
STARLINK-35494          
1 65927U 25225T   26093.57332963  .00036978  00000+0  12550-2 0  9990
2 65927  53.1602  50.3968 0001450  89.0111 271.1056 15.30185649 28216
STARLINK-35493          
1 65928U 25225U   26093.16560636  .00034141  00000+0  11591-2 0  9990
2 65928  53.1590  52.1178 0000935  63.1323 296.9774 15.30212540 28157
STARLINK-35175          
1 65929U 25225V   26093.15188577  .00029506  00000+0  10035-2 0  9991
2 65929  53.1601  52.0312 0002046  89.3674 270.7561 15.30228246 28158
